STARLINK-1882           
1 46784U 20074AX  26082.05057865  .00120658  00000+0  11746-2 0  9998
2 46784  53.0505 209.3944 0002330 212.3800 147.7072 15.65404856299422
STARLINK-1893           
1 46786U 20074AZ  26081.76041089  .00118073  00000+0  19455-2 0  9991
2 46786  53.0496 201.4599 0003954  25.4805 334.6398 15.51447328299517
STARLINK-1931           
1 46790U 20074BD  26082.09186539  .00131621  00000+0  11673-2 0  9991
2 46790  53.0432 217.2947 0003872  16.3075 343.8064 15.67672160299312
STARLINK-1934           
1 46792U 20074BF  26082.58335647  .00251383  00000+0  10353-2 0  9995
2 46792  53.0403 196.7478 0004435 352.5889 104.6207 15.84719328  5972
STARLINK-1942           
1 46794U 20074BH  26081.82891293  .00059546  00000+0  10610-2 0  9990
2 46794  53.0448 231.2954 0002662  25.6968 334.4171 15.49558296299102
STARLINK-1944           
1 46796U 20074BK  26082.06151040  .00123812  00000+0  11061-2 0  9997
2 46796  53.0453 205.1282 0004314 351.5958   8.4985 15.67521238299488
STARLINK-1777           
1 47122U 20088A   26082.10366095  .00079049  00000+0  11824-2 0  9998
2 47122  53.0520 219.0338 0004634 326.2843  33.7872 15.54319122294170
STARLINK-1812           
1 47126U 20088E   26082.42452492  .00023184  00000+0  12067-2 0  9993
2 47126  53.0781 237.1510 0000996 187.2104 172.8876 15.15945180293958
STARLINK-1843           
1 47133U 20088M   26082.58335647  .00513458  12087-3  11682-2 0  9992
2 47133  53.0395 172.2998 0010215   2.6039 116.0610 15.96842224  5959
STARLINK-1845           
1 47135U 20088P   26082.09404994  .00076276  00000+0  10212-2 0  9990
2 47135  53.0513 212.4902 0004199 324.9678  35.1057 15.57340890294267
STARLINK-1856           
1 47143U 20088X   26082.58335647  .00032006  00000+0  53526-3 0  9990
2 47143  53.0501 206.5208 0003402 218.2404  47.6250 15.51632263  5843
STARLINK-1871           
1 47157U 20088AM  26082.49702362  .00013352  00000+0  46228-3 0  9991
2 47157  53.1578 232.2338 0001311  84.8356 275.2794 15.30187877294039
STARLINK-1873           
1 47158U 20088AN  26082.06790102  .00082961  00000+0  10241-2 0  9991
2 47158  53.0485 203.8602 0004765 203.3742 156.7055 15.59461171294381
STARLINK-1876           
1 47161U 20088AR  26082.50003471  .00108173  00000+0  10046-2 0  9997
2 47161  53.0503 203.9609 0003473  20.7982  14.2261 15.66628086  5910
STARLINK-1888           
1 47171U 20088BB  26081.91668981  .00078560  00000+0  13397-2 0  9993
2 47171  53.0507 216.0655 0002273 247.1750  57.7865 15.50681867  5850
STARLINK-1912           
1 47178U 20088BJ  26081.80554649  .00100016  00000+0  12695-2 0  9995
2 47178  53.0502 217.8207 0005408 227.5373 132.5182 15.58636767294165
STARLINK-1913           
1 47179U 20088BK  26082.45597017  .00003848  00000+0  14204-3 0  9998
2 47179  53.1590 243.1113 0001198  85.3806 274.7332 15.30185071293875
STARLINK-2017           
1 47351U 21005C   26082.41931614  .00011712  00000+0  40718-3 0  9999
2 47351  53.1597 309.8942 0001217 101.1393 258.9744 15.30179973285825
STARLINK-2034           
1 47352U 21005D   26082.14926973  .00014719  00000+0  50748-3 0  9996
2 47352  53.1610 350.2268 0001378  80.1003 280.0154 15.30240029285232
STARLINK-2045           
1 47353U 21005E   26082.33129210  .00000816  00000+0  39709-4 0  9995
2 47353  53.1598 297.2975 0001485  87.5025 272.6145 15.30177239285999
STARLINK-2046           
1 47354U 21005F   26081.95259434 -.00005819  00000+0 -18461-3 0  9996
2 47354  53.1589 322.3591 0001207  81.7700 278.3437 15.30180879285601
STARLINK-2047           
1 47355U 21005G   26081.92040987 -.00008932  00000+0 -29014-3 0  9990
2 47355  53.1586 309.5554 0000986  81.4186 278.6926 15.30165826285772
STARLINK-2049           
1 47356U 21005H   26081.83932839  .00007194  00000+0  50132-3 0  9999
2 47356  53.0570 332.5860 0001416 105.1349 254.9797 15.06401748285441
STARLINK-2050           
1 47357U 21005J   26082.24505321  .00057882  00000+0  19543-2 0  9997
2 47357  53.1597 359.4781 0001289  88.7386 271.3762 15.30149740285103
STARLINK-2055           
1 47358U 21005K   26081.84945222 -.00000786  00000+0 -33851-4 0  9994
2 47358  53.0540 332.5309 0001486  98.0702 262.0455 15.06392931285442
STARLINK-2071           
1 47361U 21005N   26081.85776334 -.00002394  00000+0 -14193-3 0  9999
2 47361  53.0527 332.5039 0001190  87.9614 272.1511 15.06387639285446
STARLINK-2076           
1 47362U 21005P   26082.50003471  .00005035  00000+0  18683-3 0  9999
2 47362  53.1556 358.1602 0001523  79.3138   6.5479 15.29330203  5820
STARLINK-2081           
1 47366U 21005T   26082.50003471  .00903683  00000+0  30653-1 0  9998
2 47366  53.1469 358.4346 0001791  96.8306  38.7675 15.27604785  5825
STARLINK-2082           
1 47367U 21005U   26082.50003471  .00959024  00000+0  32701-1 0  9995
2 47367  53.1458 358.4981 0001588  84.0763 236.3778 15.27274991  5775
STARLINK-2084           
1 47368U 21005V   26082.50003471  .00973765  00000+0  32090-1 0  9995
2 47368  53.1500 358.3522 0001569  74.2667   6.3421 15.28359794  5773
STARLINK-2088           
1 47371U 21005Y   26082.50003471  .00024554  00000+0  15079-2 0  9991
2 47371  53.0661 359.6002 0001074  94.4592 297.9927 15.09975038  5675
STARLINK-2092           
1 47373U 21005AA  26082.50003471  .00094861  00000+0  32820-2 0  9994
2 47373  53.1520 358.3415 0001321  77.0725 308.9874 15.29115974  5723
STARLINK-2093           
1 47374U 21005AB  26082.43154145  .00100045  00000+0  88499-3 0  9998
2 47374  53.0514 337.7547 0003810 173.3001 186.8067 15.67863809285428
STARLINK-2094           
1 47375U 21005AC  26082.50003471 -.00000343  00000+0  46130-6 0  9992
2 47375  53.1564 358.2245 0001548  79.0433 231.2558 15.29350836  5761
STARLINK-2096           
1 47376U 21005AD  26082.50003471  .00941365  00000+0  31109-1 0  9995
2 47376  53.1500 358.3270 0001327 116.1984 119.1346 15.28357274  5761
STARLINK-2097           
1 47377U 21005AE  26082.50003471  .00023177  00000+0  14499-2 0  9992
2 47377  53.0632 359.6081 0001039 119.8127 208.0585 15.09328562  5816
STARLINK-2098           
1 47378U 21005AF  26082.32456034  .00003052  00000+0  11511-3 0  9993
2 47378  53.1570 310.8333 0000815  85.0213 275.0881 15.30204025285802
STARLINK-2099           
1 47379U 21005AG  26082.33396102 -.00004026  00000+0 -12392-3 0  9996
2 47379  53.1583 310.1643 0001374  72.3810 287.7340 15.30184552285810
STARLINK-2100           
1 47380U 21005AH  26082.50003471  .00086721  00000+0  37827-2 0  9990
2 47380  53.0559 328.3765 0001333  83.3612   3.8823 15.21429986  5824
STARLINK-2101           
1 47381U 21005AJ  26081.91668981 -.00012586  00000+0 -42465-3 0  9993
2 47381  53.1561 335.5776 0001346  91.2415 306.5993 15.29348002  5394
STARLINK-2102           
1 47382U 21005AK  26082.39460298 -.00002306  00000+0 -65798-4 0  9992
2 47382  53.1613 322.8955 0001641 104.3227 255.7956 15.30181406285632
STARLINK-2103           
1 47383U 21005AL  26081.85643086 -.00002093  00000+0 -56950-4 0  9994
2 47383  53.1589 313.0853 0001287  95.4585 264.6563 15.31031240285732
STARLINK-2104           
1 47384U 21005AM  26082.38120311  .00000506  00000+0  52851-4 0  9996
2 47384  53.0538 330.3966 0001373  92.8562 267.2584 15.06383591285525
STARLINK-2105           
1 47385U 21005AN  26082.37748705  .00008082  00000+0  56111-3 0  9998
2 47385  53.0530 330.1716 0001683  91.0137 269.1045 15.06383058285523
STARLINK-2106           
1 47386U 21005AP  26082.40696126  .00005206  00000+0  36826-3 0  9998
2 47386  53.0511 330.0387 0001543  98.5168 261.5996 15.06386182285530
STARLINK-2109           
1 47388U 21005AR  26082.50003471  .00026583  00000+0  16605-2 0  9999
2 47388  53.0631 359.6065 0002513  79.6506  68.8887 15.09308106  5821
STARLINK-2110           
1 47389U 21005AS  26082.40719589 -.00002390  00000+0 -68643-4 0  9996
2 47389  53.1603 333.0465 0001255  92.5939 267.5205 15.30178498285496
STARLINK-2111           
1 47390U 21005AT  26082.50003471  .00021125  00000+0  13095-2 0  9999
2 47390  53.0649 359.6030 0001410 116.2676 174.6247 15.09720945  5764
STARLINK-2112           
1 47391U 21005AU  26082.39128276  .00001451  00000+0  11634-3 0  9996
2 47391  53.0529 330.1098 0001312  86.3278 273.7861 15.06385896285522
STARLINK-2113           
1 47392U 21005AV  26082.33639434  .00071799  00000+0  83221-3 0  9997
2 47392  53.0510 309.9287 0005022 175.1730 184.9332 15.61169037285804
STARLINK-2114           
1 47393U 21005AW  26082.50003471  .00188680  00000+0  15942-2 0  9995
2 47393  53.0434 275.8602 0001725 262.3392 198.1079 15.68661862  5851
STARLINK-2119           
1 47397U 21005BA  26082.50003471  .00862824  00000+0  28515-1 0  9997
2 47397  53.1508 358.2617 0001941  96.4231  54.3710 15.28577247  5773
STARLINK-2121           
1 47399U 21005BC  26082.01846261 -.00001060  00000+0 -23671-4 0  9997
2 47399  53.1615 334.7947 0001446  88.9184 271.1983 15.30188958285436
STARLINK-2122           
1 47400U 21005BD  26082.33711741 -.00006420  00000+0 -20495-3 0  9994
2 47400  53.1597 310.1187 0001581  96.7734 263.3446 15.30176353285815
STARLINK-2123           
1 47401U 21005BE  26082.39960516 -.00001475  00000+0 -80123-4 0  9997
2 47401  53.0552 330.0734 0001597  84.8890 275.2281 15.06393805285537
STARLINK-2128           
1 47404U 21005BH  26082.31901805  .00082009  00000+0  86556-3 0  9993
2 47404  53.0513 309.4969 0004595 191.4978 168.5932 15.63526729285814
STARLINK-2130           
1 47405U 21005BJ  26082.50003471  .00530648  00000+0  18545-1 0  9995
2 47405  53.1488 358.2830 0001366 102.0939  78.1513 15.27093162  5826
STARLINK-2134           
1 47407U 21005BL  26082.37378942 -.00003366  00000+0 -20723-3 0  9997
2 47407  53.0543 330.1894 0001334  90.2275 269.8867 15.06389903285520
STARLINK-2135           
1 47408U 21005BM  26082.41066038  .00007412  00000+0  51614-3 0  9990
2 47408  53.0521 330.0237 0001468  89.4870 270.6287 15.06387029285530
STARLINK-1954           
1 47555U 21009H   26082.34957205  .00029532  00000+0  94444-3 0  9999
2 47555  53.0572 306.4469 0004043 150.0499 210.0733 15.32205996283057
